PHISAT 2                
1 60470U 24149C   26068.78834181  .00008925  00000+0  31421-3 0  9996
2 60470  97.3806 148.6498 0001175 168.6230 191.5037 15.29548631 86792
STARLINK-32466          
1 61859U 24202Q   26068.46838647  .00000106  00000+0  13396-4 0  9999
2 61859  43.0012 239.2537 0002000 284.1644  75.8985 15.27579013 75300
